{"type": "FeatureCollection", "features": [ {"type": "Feature", "properties": {"norad_id": 31431, "name": "FENGYUN 1C DEB", "group": "fengyun-1c-debris", "lat": 60.092130292586376, "lon": 59.1925705565205, "alt_km": 782.5046784903643, "timestamp": "2025-12-01T03:58:50.097228+00:00", "meta": {"OBJECT_NAME": "FENGYUN 1C DEB", "OBJECT_ID": "1999-025BTT", "EPOCH": "2025-11-30T03:27:32.221152", "MEAN_MOTION": 14.02993502, "ECCENTRICITY": 0.01325752, "INCLINATION": 98.5403, "RA_OF_ASC_NODE": 223.0902, "ARG_OF_PERICENTER": 130.854, "MEAN_ANOMALY": 230.4208, "EPHEMERIS_TYPE": 0, "CLASSIFICATION_TYPE": "U", "NORAD_CAT_ID": 31431, "ELEMENT_SET_NO": 999, "REV_AT_EPOCH": 94355, "BSTAR": 0.0013484582, "MEAN_MOTION_DOT": 2.223e-05, "MEAN_MOTION_DDOT": 0, "GROUP": "fengyun-1c-debris"}, "tle": {"line1": "1 31431U 99025BTT 25334.14412293  .00002223  00000+0  13485-2 0  9991", "line2": "2 31431  98.5403 223.0902 0132575 130.8540 230.4208 14.02993502943555"}}, "geometry": {"type": "Point", "coordinates": [59.1925705565205, 60.092130292586376]}}, {"type": "Feature", "properties": {"norad_id": 31433, "name": "FENGYUN 1C DEB", "group": "fengyun-1c-debris", "lat": -19.70282406742207, "lon": 56.071076555390135, "alt_km": 865.2809963377977, "timestamp": "2025-12-01T03:58:50.097239+00:00", "meta": {"OBJECT_NAME": "FENGYUN 1C DEB", "OBJECT_ID": "1999-025BTV", "EPOCH": "2025-11-30T05:51:05.089824", "MEAN_MOTION": 14.25202237, "ECCENTRICITY": 0.00999691, "INCLINATION": 98.4099, "RA_OF_ASC_NODE": 238.2239, "ARG_OF_PERICENTER": 65.2924, "MEAN_ANOMALY": 85.6401, "EPHEMERIS_TYPE": 0, "CLASSIFICATION_TYPE": "U", "NORAD_CAT_ID": 31433, "ELEMENT_SET_NO": 999, "REV_AT_EPOCH": 95374, "BSTAR": 0.0024378742, "MEAN_MOTION_DOT": 5.999e-05, "MEAN_MOTION_DDOT": 0, "GROUP": "fengyun-1c-debris"}, "tle": {"line1": "1 31433U 99025BTV 25334.24380891  .00005999  00000+0  24379-2 0  9999", "line2": "2 31433  98.4099 238.2239 0099969  65.2924  85.6401 14.25202237953744"}}, "geometry": {"type": "Point", "coordinates": [56.071076555390135, -19.70282406742207]}}, {"type": "Feature", "properties": {"norad_id": 31435, "name": "FENGYUN 1C DEB", "group": "fengyun-1c-debris", "lat": -5.594759932117236, "lon": -34.80841599060873, "alt_km": 626.0690290279117, "timestamp": "2025-12-01T03:58:50.097249+00:00", "meta": {"OBJECT_NAME": "FENGYUN 1C DEB", "OBJECT_ID": "1999-025BTX", "EPOCH": "2025-11-30T10:35:53.818368", "MEAN_MOTION": 14.53382079, "ECCENTRICITY": 0.01486144, "INCLINATION": 99.0365, "RA_OF_ASC_NODE": 145.3041, "ARG_OF_PERICENTER": 217.1529, "MEAN_ANOMALY": 141.9308, "EPHEMERIS_TYPE": 0, "CLASSIFICATION_TYPE": "U", "NORAD_CAT_ID": 31435, "ELEMENT_SET_NO": 999, "REV_AT_EPOCH": 98194, "BSTAR": 0.0003078086, "MEAN_MOTION_DOT": 1.42e-05, "MEAN_MOTION_DDOT": 0, "GROUP": "fengyun-1c-debris"}, "tle": {"line1": "1 31435U 99025BTX 25334.44159512  .00001420  00000+0  30781-3 0  9997", "line2": "2 31435  99.0365 145.3041 0148614 217.1529 141.9308 14.53382079981948"}}, "geometry": {"type": "Point", "coordinates": [-34.80841599060873, -5.594759932117236]}}, {"type": "Feature", "properties": {"norad_id": 31436, "name": "FENGYUN 1C DEB", "group": "fengyun-1c-debris", "lat": -55.93251389328631, "lon": -159.99467321715977, "alt_km": 568.9338189319742, "timestamp": "2025-12-01T03:58:50.097260+00:00", "meta": {"OBJECT_NAME": "FENGYUN 1C DEB", "OBJECT_ID": "1999-025BTY", "EPOCH": "2025-11-29T01:25:18.570144", "MEAN_MOTION": 14.91615922, "ECCENTRICITY": 0.00473772, "INCLINATION": 98.8827, "RA_OF_ASC_NODE": 184.262, "ARG_OF_PERICENTER": 286.8304, "MEAN_ANOMALY": 229.9013, "EPHEMERIS_TYPE": 0, "CLASSIFICATION_TYPE": "U", "NORAD_CAT_ID": 31436, "ELEMENT_SET_NO": 999, "REV_AT_EPOCH": 96672, "BSTAR": 0.0047965931, "MEAN_MOTION_DOT": 0.00049453, "MEAN_MOTION_DDOT": 0, "GROUP": "fengyun-1c-debris"}, "tle": {"line1": "1 31436U 99025BTY 25333.05924271  .00049453  00000+0  47966-2 0  9996", "line2": "2 31436  98.8827 184.2620 0047377 286.8304 229.9013 14.91615922966729"}}, "geometry": {"type": "Point", "coordinates": [-159.99467321715977, -55.93251389328631]}}, {"type": "Feature", "properties": {"norad_id": 31437, "name": "FENGYUN 1C DEB", "group": "fengyun-1c-debris", "lat": 62.031373914452935, "lon": -107.12404237477885, "alt_km": 754.9511418922821, "timestamp": "2025-12-01T03:58:50.097271+00:00", "meta": {"OBJECT_NAME": "FENGYUN 1C DEB", "OBJECT_ID": "1999-025BTZ", "EPOCH": "2025-11-30T04:07:48.785088", "MEAN_MOTION": 14.42212338, "ECCENTRICITY": 0.00143842, "INCLINATION": 98.8652, "RA_OF_ASC_NODE": 54.7511, "ARG_OF_PERICENTER": 284.0314, "MEAN_ANOMALY": 75.9275, "EPHEMERIS_TYPE": 0, "CLASSIFICATION_TYPE": "U", "NORAD_CAT_ID": 31437, "ELEMENT_SET_NO": 999, "REV_AT_EPOCH": 96329, "BSTAR": 0.0026156537, "MEAN_MOTION_DOT": 8.591e-05, "MEAN_MOTION_DDOT": 0, "GROUP": "fengyun-1c-debris"}, "tle": {"line1": "1 31437U 99025BTZ 25334.17209242  .00008591  00000+0  26157-2 0  9992", "line2": "2 31437  98.8652  54.7511 0014384 284.0314  75.9275 14.42212338963297"}}, "geometry": {"type": "Point", "coordinates": [-107.12404237477885, 62.031373914452935]}}, {"type": "Feature", "properties": {"norad_id": 31439, "name": "FENGYUN 1C DEB", "group": "fengyun-1c-debris", "lat": 49.35051231729499, "lon": -28.97346674701207, "alt_km": 984.6457369588652, "timestamp": "2025-12-01T03:58:50.097281+00:00", "meta": {"OBJECT_NAME": "FENGYUN 1C DEB", "OBJECT_ID": "1999-025BUB", "EPOCH": "2025-11-29T07:04:44.633856", "MEAN_MOTION": 13.95538645, "ECCENTRICITY": 0.01375124, "INCLINATION": 98.9171, "RA_OF_ASC_NODE": 339.7522, "ARG_OF_PERICENTER": 198.7322, "MEAN_ANOMALY": 178.3207, "EPHEMERIS_TYPE": 0, "CLASSIFICATION_TYPE": "U", "NORAD_CAT_ID": 31439, "ELEMENT_SET_NO": 999, "REV_AT_EPOCH": 63045, "BSTAR": 0.00070468715, "MEAN_MOTION_DOT": 9.94e-06, "MEAN_MOTION_DDOT": 0, "GROUP": "fengyun-1c-debris"}, "tle": {"line1": "1 31439U 99025BUB 25333.29496104  .00000994  00000+0  70469-3 0  9996", "line2": "2 31439  98.9171 339.7522 0137512 198.7322 178.3207 13.95538645630454"}}, "geometry": {"type": "Point", "coordinates": [-28.97346674701207, 49.35051231729499]}}, {"type": "Feature", "properties": {"norad_id": 31440, "name": "FENGYUN 1C DEB", "group": "fengyun-1c-debris", "lat": 79.87281182485707, "lon": 3.4541649554307825, "alt_km": 752.0466397519986, "timestamp": "2025-12-01T03:58:50.097292+00:00", "meta": {"OBJECT_NAME": "FENGYUN 1C DEB", "OBJECT_ID": "1999-025BUC", "EPOCH": "2025-11-29T04:46:54.699744", "MEAN_MOTION": 14.36472263, "ECCENTRICITY": 0.00369203, "INCLINATION": 98.7464, "RA_OF_ASC_NODE": 60.9885, "ARG_OF_PERICENTER": 24.304, "MEAN_ANOMALY": 335.9876, "EPHEMERIS_TYPE": 0, "CLASSIFICATION_TYPE": "U", "NORAD_CAT_ID": 31440, "ELEMENT_SET_NO": 999, "REV_AT_EPOCH": 96131, "BSTAR": 0.0019521191, "MEAN_MOTION_DOT": 5.729e-05, "MEAN_MOTION_DDOT": 0, "GROUP": "fengyun-1c-debris"}, "tle": {"line1": "1 31440U 99025BUC 25333.19924421  .00005729  00000+0  19521-2 0  9997", "line2": "2 31440  98.7464  60.9885 0036920  24.3040 335.9876 14.36472263961310"}}, "geometry": {"type": "Point", "coordinates": [3.4541649554307825, 79.87281182485707]}}, {"type": "Feature", "properties": {"norad_id": 31441, "name": "FENGYUN 1C DEB", "group": "fengyun-1c-debris", "lat": -57.00147529805581, "lon": -149.10401843637422, "alt_km": 628.1101537277864, "timestamp": "2025-12-01T03:58:50.097303+00:00", "meta": {"OBJECT_NAME": "FENGYUN 1C DEB", "OBJECT_ID": "1999-025BUD", "EPOCH": "2025-11-30T02:10:09.261408", "MEAN_MOTION": 14.73703753, "ECCENTRICITY": 0.01068395, "INCLINATION": 99.3136, "RA_OF_ASC_NODE": 195.0237, "ARG_OF_PERICENTER": 13.9073, "MEAN_ANOMALY": 346.5034, "EPHEMERIS_TYPE": 0, "CLASSIFICATION_TYPE": "U", "NORAD_CAT_ID": 31441, "ELEMENT_SET_NO": 999, "REV_AT_EPOCH": 63904, "BSTAR": 0.0056985037, "MEAN_MOTION_DOT": 0.00040911, "MEAN_MOTION_DDOT": 0, "GROUP": "fengyun-1c-debris"}, "tle": {"line1": "1 31441U 99025BUD 25334.09038497  .00040911  00000+0  56985-2 0  9994", "line2": "2 31441  99.3136 195.0237 0106839  13.9073 346.5034 14.73703753639040"}}, "geometry": {"type": "Point", "coordinates": [-149.10401843637422, -57.00147529805581]}}, {"type": "Feature", "properties": {"norad_id": 31442, "name": "FENGYUN 1C DEB", "group": "fengyun-1c-debris", "lat": -6.884465008546152, "lon": -119.73649867130189, "alt_km": 826.0518859959475, "timestamp": "2025-12-01T03:58:50.097314+00:00", "meta": {"OBJECT_NAME": "FENGYUN 1C DEB", "OBJECT_ID": "1999-025BUE", "EPOCH": "2025-11-30T12:02:43.199232", "MEAN_MOTION": 14.33889615, "ECCENTRICITY": 0.0079926, "INCLINATION": 98.5333, "RA_OF_ASC_NODE": 60.6472, "ARG_OF_PERICENTER": 49.012, "MEAN_ANOMALY": 311.7942, "EPHEMERIS_TYPE": 0, "CLASSIFICATION_TYPE": "U", "NORAD_CAT_ID": 31442, "ELEMENT_SET_NO": 999, "REV_AT_EPOCH": 97185, "BSTAR": 0.0003719796, "MEAN_MOTION_DOT": 1.031e-05, "MEAN_MOTION_DDOT": 0, "GROUP": "fengyun-1c-debris"}, "tle": {"line1": "1 31442U 99025BUE 25334.50188888  .00001031  00000+0  37198-3 0  9997", "line2": "2 31442  98.5333  60.6472 0079926  49.0120 311.7942 14.33889615971856"}}, "geometry": {"type": "Point", "coordinates": [-119.73649867130189, -6.884465008546152]}}]}